KOREASAT 6A             
1 61910U 24206A   26062.53818693 -.00000376  00000+0  00000+0 0  9995
2 61910   0.0168 132.5460 0001026 197.0545 141.4465  1.00270626  4783
INTELSAT 33E DEB        
1 61994U 16053L   26062.45059313 -.00000351  00000+0  00000+0 0  9998
2 61994   1.3129  87.1597 0025598 209.6136 151.2315  1.00502045  5033
INTELSAT 33E DEB        
1 61998U 16053Q   26061.90869639 -.00000274  00000+0  00000+0 0  9995
2 61998   1.2832  84.4862 0030618 268.9723  91.6748  1.00405023  5036
INTELSAT 33E DEB        
1 62003U 16053V   26061.84772091 -.00000111  00000+0  00000+0 0  9991
2 62003   1.3517  90.1387 0025370 246.1274 114.4960  1.00408959  5018
OPTUS-X (ADS-01)        
1 62006U 24212A   26062.47487482 -.00000159  00000+0  00000+0 0  9999
2 62006   0.0616 275.0999 0001061  81.9955 131.4991  1.00269128  4703
GSAT-N2 (GSAT-20)       
1 62028U 24214A   26062.76606028 -.00000034  00000+0  00000+0 0  9998
2 62028   0.0866 265.4794 0001196 315.0981 284.7212  1.00272981  4843
SXM-9                   
1 62259U 24234A   26062.40878174  .00000000  00000+0  00000+0 0  9992
2 62259   0.0134 144.9725 0004144 163.4417 274.7787  1.00269605  4516
TJS-12                  
1 62374U 24246A   26062.77058575 -.00000246  00000+0  00000+0 0  9991
2 62374   0.9117 291.6404 0002391  24.4722 269.2765  1.00275293  4509
NUVIEW ALPHA            
1 62455U 24252B   26062.42729456 -.00000230  00000+0  00000+0 0  9996
2 62455   0.0550  21.5572 0002660 333.1647 237.1688  1.00273615  2762
AGILA                   
1 62456U 24252C   26062.75919498 -.00000195  00000+0  00000+0 0  9990
2 62456   0.0252 152.2810 0001452 192.5637 242.1054  1.00273927  4102
NUVIEW BRAVO            
1 62457U 24252D   26062.42729456 -.00000232  00000+0  00000+0 0  9990
2 62457   0.0657 170.5990 0001124 211.9416 209.3228  1.00289420  2731
THURAYA-4               
1 62483U 25001A   26062.66654781  .00000125  00000+0  00000+0 0  9996
2 62483   0.0192 100.7408 0000137 198.5765 146.3571  1.00272882  3111
TJS-14                  
1 62804U 25017A   26062.80408855  .00000100  00000+0  00000+0 0  9998
2 62804   1.0290 290.0071 0002352  50.0040 129.3698  1.00269772  4213
SPAINSAT NG I           
1 62852U 25021A   26062.80616854  .00000000  00000+0  00000+0 0  9995
2 62852   0.0253 150.6410 0000084 220.1780 109.9302  1.00270878  2935
QZS-6 (MICHIBIKI-6)     
1 62876U 25023A   26062.66262512 -.00000247  00000+0  00000+0 0  9999
2 62876   0.0440 306.2401 0001894  29.5503 154.6750  1.00270273  3903
ZHONGXING-10R           
1 63075U 25036A   26062.54374669 -.00000366  00000+0  00000+0 0  9991
2 63075   0.0991 262.4559 0001038 298.0880 266.9941  1.00268340  3893
TJS-15                  
1 63157U 25045A   26062.58238487 -.00000279  00000+0  00000+0 0  9996
2 63157   0.2171  88.0946 0006982 264.7815 112.4161  1.00276537  3705
