[{"OBJECT_NAME":"KOREASAT 6A","OBJECT_ID":"2024-206A","EPOCH":"2026-03-03T12:54:59.350752","MEAN_MOTION":1.00270626,"ECCENTRICITY":0.0001026,"INCLINATION":0.0168,"RA_OF_ASC_NODE":132.546,"ARG_OF_PERICENTER":197.0545,"MEAN_ANOMALY":141.4465,"EPHEMERIS_TYPE":0,"CLASSIFICATION_TYPE":"U","NORAD_CAT_ID":61910,"ELEMENT_SET_NO":999,"REV_AT_EPOCH":478,"BSTAR":0,"MEAN_MOTION_DOT":-3.76e-6,"MEAN_MOTION_DDOT":0},{"OBJECT_NAME":"INTELSAT 33E DEB","OBJECT_ID":"2016-053L","EPOCH":"2026-03-03T10:48:51.246432","MEAN_MOTION":1.00502045,"ECCENTRICITY":0.0025598,"INCLINATION":1.3129,"RA_OF_ASC_NODE":87.1597,"ARG_OF_PERICENTER":209.6136,"MEAN_ANOMALY":151.2315,"EPHEMERIS_TYPE":0,"CLASSIFICATION_TYPE":"U","NORAD_CAT_ID":61994,"ELEMENT_SET_NO":999,"REV_AT_EPOCH":503,"BSTAR":0,"MEAN_MOTION_DOT":-3.51e-6,"MEAN_MOTION_DDOT":0},{"OBJECT_NAME":"INTELSAT 33E DEB","OBJECT_ID":"2016-053Q","EPOCH":"2026-03-02T21:48:31.368096","MEAN_MOTION":1.00405023,"ECCENTRICITY":0.0030618,"INCLINATION":1.2832,"RA_OF_ASC_NODE":84.4862,"ARG_OF_PERICENTER":268.9723,"MEAN_ANOMALY":91.6748,"EPHEMERIS_TYPE":0,"CLASSIFICATION_TYPE":"U","NORAD_CAT_ID":61998,"ELEMENT_SET_NO":999,"REV_AT_EPOCH":503,"BSTAR":0,"MEAN_MOTION_DOT":-2.74e-6,"MEAN_MOTION_DDOT":0},{"OBJECT_NAME":"INTELSAT 33E DEB","OBJECT_ID":"2016-053V","EPOCH":"2026-03-02T20:20:43.086624","MEAN_MOTION":1.00408959,"ECCENTRICITY":0.00253705,"INCLINATION":1.3517,"RA_OF_ASC_NODE":90.1387,"ARG_OF_PERICENTER":246.1274,"MEAN_ANOMALY":114.496,"EPHEMERIS_TYPE":0,"CLASSIFICATION_TYPE":"U","NORAD_CAT_ID":62003,"ELEMENT_SET_NO":999,"REV_AT_EPOCH":501,"BSTAR":0,"MEAN_MOTION_DOT":-1.11e-6,"MEAN_MOTION_DDOT":0},{"OBJECT_NAME":"OPTUS-X (ADS-01)","OBJECT_ID":"2024-212A","EPOCH":"2026-03-03T11:23:49.184448","MEAN_MOTION":1.00269128,"ECCENTRICITY":0.00010612,"INCLINATION":0.0616,"RA_OF_ASC_NODE":275.0999,"ARG_OF_PERICENTER":81.9955,"MEAN_ANOMALY":131.4991,"EPHEMERIS_TYPE":0,"CLASSIFICATION_TYPE":"U","NORAD_CAT_ID":62006,"ELEMENT_SET_NO":999,"REV_AT_EPOCH":470,"BSTAR":0,"MEAN_MOTION_DOT":-1.59e-6,"MEAN_MOTION_DDOT":0},{"OBJECT_NAME":"GSAT-N2 (GSAT-20)","OBJECT_ID":"2024-214A","EPOCH":"2026-03-03T18:23:07.608192","MEAN_MOTION":1.00272981,"ECCENTRICITY":0.0001196,"INCLINATION":0.0866,"RA_OF_ASC_NODE":265.4794,"ARG_OF_PERICENTER":315.0981,"MEAN_ANOMALY":284.7212,"EPHEMERIS_TYPE":0,"CLASSIFICATION_TYPE":"U","NORAD_CAT_ID":62028,"ELEMENT_SET_NO":999,"REV_AT_EPOCH":484,"BSTAR":0,"MEAN_MOTION_DOT":-3.4e-7,"MEAN_MOTION_DDOT":0},{"OBJECT_NAME":"SXM-9","OBJECT_ID":"2024-234A","EPOCH":"2026-03-03T09:48:38.742336","MEAN_MOTION":1.00269605,"ECCENTRICITY":0.00041442,"INCLINATION":0.0134,"RA_OF_ASC_NODE":144.9725,"ARG_OF_PERICENTER":163.4417,"MEAN_ANOMALY":274.7787,"EPHEMERIS_TYPE":0,"CLASSIFICATION_TYPE":"U","NORAD_CAT_ID":62259,"ELEMENT_SET_NO":999,"REV_AT_EPOCH":451,"BSTAR":0,"MEAN_MOTION_DOT":0,"MEAN_MOTION_DDOT":0},{"OBJECT_NAME":"TJS-12","OBJECT_ID":"2024-246A","EPOCH":"2026-03-03T18:29:38.608800","MEAN_MOTION":1.00275293,"ECCENTRICITY":0.0002391,"INCLINATION":0.9117,"RA_OF_ASC_NODE":291.6404,"ARG_OF_PERICENTER":24.4722,"MEAN_ANOMALY":269.2765,"EPHEMERIS_TYPE":0,"CLASSIFICATION_TYPE":"U","NORAD_CAT_ID":62374,"ELEMENT_SET_NO":999,"REV_AT_EPOCH":450,"BSTAR":0,"MEAN_MOTION_DOT":-2.46e-6,"MEAN_MOTION_DDOT":0},{"OBJECT_NAME":"NUVIEW ALPHA","OBJECT_ID":"2024-252B","EPOCH":"2026-03-03T10:15:18.249984","MEAN_MOTION":1.00273615,"ECCENTRICITY":0.00026604,"INCLINATION":0.055,"RA_OF_ASC_NODE":21.5572,"ARG_OF_PERICENTER":333.1647,"MEAN_ANOMALY":237.1688,"EPHEMERIS_TYPE":0,"CLASSIFICATION_TYPE":"U","NORAD_CAT_ID":62455,"ELEMENT_SET_NO":999,"REV_AT_EPOCH":276,"BSTAR":0,"MEAN_MOTION_DOT":-2.3e-6,"MEAN_MOTION_DDOT":0},{"OBJECT_NAME":"AGILA","OBJECT_ID":"2024-252C","EPOCH":"2026-03-03T18:13:14.446272","MEAN_MOTION":1.00273927,"ECCENTRICITY":0.0001452,"INCLINATION":0.0252,"RA_OF_ASC_NODE":152.281,"ARG_OF_PERICENTER":192.5637,"MEAN_ANOMALY":242.1054,"EPHEMERIS_TYPE":0,"CLASSIFICATION_TYPE":"U","NORAD_CAT_ID":62456,"ELEMENT_SET_NO":999,"REV_AT_EPOCH":410,"BSTAR":0,"MEAN_MOTION_DOT":-1.95e-6,"MEAN_MOTION_DDOT":0},{"OBJECT_NAME":"NUVIEW BRAVO","OBJECT_ID":"2024-252D","EPOCH":"2026-03-03T10:15:18.249984","MEAN_MOTION":1.0028942,"ECCENTRICITY":0.00011249,"INCLINATION":0.0657,"RA_OF_ASC_NODE":170.599,"ARG_OF_PERICENTER":211.9416,"MEAN_ANOMALY":209.3228,"EPHEMERIS_TYPE":0,"CLASSIFICATION_TYPE":"U","NORAD_CAT_ID":62457,"ELEMENT_SET_NO":999,"REV_AT_EPOCH":273,"BSTAR":0,"MEAN_MOTION_DOT":-2.32e-6,"MEAN_MOTION_DDOT":0},{"OBJECT_NAME":"THURAYA-4","OBJECT_ID":"2025-001A","EPOCH":"2026-03-03T15:59:49.730784","MEAN_MOTION":1.00272882,"ECCENTRICITY":1.37e-5,"INCLINATION":0.0192,"RA_OF_ASC_NODE":100.7408,"ARG_OF_PERICENTER":198.5765,"MEAN_ANOMALY":146.3571,"EPHEMERIS_TYPE":0,"CLASSIFICATION_TYPE":"U","NORAD_CAT_ID":62483,"ELEMENT_SET_NO":999,"REV_AT_EPOCH":311,"BSTAR":0,"MEAN_MOTION_DOT":1.25e-6,"MEAN_MOTION_DDOT":0},{"OBJECT_NAME":"TJS-14","OBJECT_ID":"2025-017A","EPOCH":"2026-03-03T19:17:53.250720","MEAN_MOTION":1.00269772,"ECCENTRICITY":0.0002352,"INCLINATION":1.029,"RA_OF_ASC_NODE":290.0071,"ARG_OF_PERICENTER":50.004,"MEAN_ANOMALY":129.3698,"EPHEMERIS_TYPE":0,"CLASSIFICATION_TYPE":"U","NORAD_CAT_ID":62804,"ELEMENT_SET_NO":999,"REV_AT_EPOCH":421,"BSTAR":0,"MEAN_MOTION_DOT":1.0e-6,"MEAN_MOTION_DDOT":0},{"OBJECT_NAME":"SPAINSAT NG I","OBJECT_ID":"2025-021A","EPOCH":"2026-03-03T19:20:52.961856","MEAN_MOTION":1.00270878,"ECCENTRICITY":8.4e-6,"INCLINATION":0.0253,"RA_OF_ASC_NODE":150.641,"ARG_OF_PERICENTER":220.178,"MEAN_ANOMALY":109.9302,"EPHEMERIS_TYPE":0,"CLASSIFICATION_TYPE":"U","NORAD_CAT_ID":62852,"ELEMENT_SET_NO":999,"REV_AT_EPOCH":293,"BSTAR":0,"MEAN_MOTION_DOT":0,"MEAN_MOTION_DDOT":0},{"OBJECT_NAME":"QZS-6 (MICHIBIKI-6)","OBJECT_ID":"2025-023A","EPOCH":"2026-03-03T15:54:10.810368","MEAN_MOTION":1.00270273,"ECCENTRICITY":0.0001894,"INCLINATION":0.044,"RA_OF_ASC_NODE":306.2401,"ARG_OF_PERICENTER":29.5503,"MEAN_ANOMALY":154.675,"EPHEMERIS_TYPE":0,"CLASSIFICATION_TYPE":"U","NORAD_CAT_ID":62876,"ELEMENT_SET_NO":999,"REV_AT_EPOCH":390,"BSTAR":0,"MEAN_MOTION_DOT":-2.47e-6,"MEAN_MOTION_DDOT":0},{"OBJECT_NAME":"ZHONGXING-10R","OBJECT_ID":"2025-036A","EPOCH":"2026-03-03T13:02:59.714016","MEAN_MOTION":1.0026834,"ECCENTRICITY":0.00010382,"INCLINATION":0.0991,"RA_OF_ASC_NODE":262.4559,"ARG_OF_PERICENTER":298.088,"MEAN_ANOMALY":266.9941,"EPHEMERIS_TYPE":0,"CLASSIFICATION_TYPE":"U","NORAD_CAT_ID":63075,"ELEMENT_SET_NO":999,"REV_AT_EPOCH":389,"BSTAR":0,"MEAN_MOTION_DOT":-3.66e-6,"MEAN_MOTION_DDOT":0},{"OBJECT_NAME":"TJS-15","OBJECT_ID":"2025-045A","EPOCH":"2026-03-03T13:58:38.052768","MEAN_MOTION":1.00276537,"ECCENTRICITY":0.0006982,"INCLINATION":0.2171,"RA_OF_ASC_NODE":88.0946,"ARG_OF_PERICENTER":264.7815,"MEAN_ANOMALY":112.4161,"EPHEMERIS_TYPE":0,"CLASSIFICATION_TYPE":"U","NORAD_CAT_ID":63157,"ELEMENT_SET_NO":999,"REV_AT_EPOCH":370,"BSTAR":0,"MEAN_MOTION_DOT":-2.79e-6,"MEAN_MOTION_DDOT":0}]
